NOAA 1 [-]              
1 04793U 70106A   23276.82093358 -.00000027  00000+0  99791-4 0  9993
2 04793 101.4908 332.3852 0031980 119.7250 357.6532 12.54019325416925
NOAA 2 (ITOS-D) [-]     
1 06235U 72082A   23277.51750128 -.00000029  00000+0  11055-3 0  9991
2 06235 102.0021 268.6909 0003670 250.4720 222.9173 12.53168302331587
NOAA 3 [-]              
1 06920U 73086A   23276.91246660 -.00000032  00000+0  10430-3 0  9991
2 06920 102.2588 265.8637 0006561 136.1607 278.6323 12.40358677259497
NOAA 4 [-]              
1 07529U 74089A   23276.92272163 -.00000030  00000+0  10194-3 0  9994
2 07529 101.9679 264.0353 0008670 280.7171 134.7817 12.53172169235859
NOAA 5 [-]              
1 09057U 76077A   23276.85744437 -.00000027  00000+0  13776-3 0  9996
2 09057 102.1682 246.1297 0009981 350.1443  63.6843 12.37789487132317
TIROS N [-]             
1 11060U 78096A   23276.71996097  .00000289  00000+0  15972-3 0  9991
2 11060  98.5719 321.2656 0009939 214.2218 145.8318 14.18639051538705
NOAA 6 [-]              
1 11416U 79057A   23276.91551352  .00000635  00000+0  24256-3 0  9997
2 11416  98.6496 293.2684 0009284 304.9587  55.0725 14.34179077309379
NOAA 7 [-]              
1 12553U 81059A   23277.39711975  .00000126  00000+0  84444-4 0  9998
2 12553  98.9342 330.9865 0011095 201.9410 158.1291 14.17442579185151
NOAA 8 [-]              
1 13923U 83022A   23276.92180489  .00000354  00000+0  15756-3 0  9992
2 13923  98.7208 271.6171 0013843 265.2288  94.7312 14.29052975110025
NOAA 9 [-]              
1 15427U 84123A   23276.91979580  .00000300  00000+0  17414-3 0  9997
2 15427  99.1011 263.3197 0013756 264.5319 158.1555 14.16423575  3624
NOAA 10 [-]             
1 16969U 86073A   23276.94051083  .00000356  00000+0  15964-3 0  9996
2 16969  98.6160 260.6987 0012454  11.0834  43.3438 14.28430042928680
NOAA 11 [-]             
1 19531U 88089A   23276.91596107  .00000156  00000+0  10118-3 0  9995
2 19531  98.4801 246.3832 0009966 253.7339 106.2740 14.15433795808043
NOAA 12 [-]             
1 21263U 91032A   23276.95050123  .00000240  00000+0  11819-3 0  9992
2 21263  98.5411 269.1713 0014413  38.0776 322.1420 14.26169511684218
NOAA 13 [-]             
1 22739U 93050A   23276.91297263  .00000305  00000+0  18560-3 0  9999
2 22739  98.5672 239.7574 0010648  70.6492 289.5832 14.13051982553910
NOAA 14 [-]             
1 23455U 94089A   23276.93698340  .00000125  00000+0  86692-4 0  9993
2 23455  98.4283 282.3484 0010343  47.6490 312.5558 14.14305046483638
NOAA 15 [B]             
1 25338U 98030A   23277.37730368  .00000302  00000+0  14370-3 0  9991
2 25338  98.5988 304.5343 0010246   1.5594 358.5616 14.26401885320827
NOAA 16 [-]             
1 26536U 00055A   23276.85100882  .00000171  00000+0  11330-3 0  9993
2 26536  98.5716 322.7309 0009412 250.4635 109.5522 14.13471080484220
NOAA 17 [-]             
1 27453U 02032A   23276.88776355  .00000466  00000+0  21658-3 0  9997
2 27453  98.7261 223.1572 0011505 341.4526  18.6232 14.25376279106303
NOAA 18 [B]             
1 28654U 05018A   23277.47015348  .00000361  00000+0  21719-3 0  9994
2 28654  98.9013 351.2925 0015170  72.7040 287.5791 14.13020303947004
NOAA 19 [+]             
1 33591U 09005A   23277.38679097  .00000298  00000+0  18503-3 0  9993
2 33591  99.0880 325.0020 0012943 297.3762  62.6092 14.12833651755369
SUOMI NPP [+]           
1 37849U 11061A   23277.42981043  .00000235  00000+0  13186-3 0  9993
2 37849  98.7107 214.3148 0000881  61.0878  46.9219 14.19575140618435
NOAA 20 [+]             
1 43013U 17073A   23277.44380421  .00000225  00000+0  12738-3 0  9998
2 43013  98.7185 214.1909 0001308 103.6817 256.4505 14.19571729304476
NOAA 21 (JPSS-2) [+]    
1 54234U 22150A   23277.17786792  .00000240  00000+0  13460-3 0  9998
2 54234  98.7222 213.4451 0001629  89.8905 270.2458 14.19556367 46518
